{
  "links" : {
    "next" : "https://api.nasa.gov/neo/rest/v1/feed?start_date=2014-05-09&end_date=2014-05-09&detailed=true&api_key=t0TVs3DtDT2H8Oy2Zy8m2eVrNsAVKAexjcZXUckd",
    "prev" : "https://api.nasa.gov/neo/rest/v1/feed?start_date=2014-05-07&end_date=2014-05-07&detailed=true&api_key=t0TVs3DtDT2H8Oy2Zy8m2eVrNsAVKAexjcZXUckd",
    "self" : "https://api.nasa.gov/neo/rest/v1/feed?start_date=2014-05-08&end_date=2014-05-08&detailed=true&api_key=t0TVs3DtDT2H8Oy2Zy8m2eVrNsAVKAexjcZXUckd"
  },
  "element_count" : 9,
  "near_earth_objects" : {
    "2014-05-08" : [ {
      "links" : {
        "self" : "https://api.nasa.gov/neo/rest/v1/neo/2365424?api_key=t0TVs3DtDT2H8Oy2Zy8m2eVrNsAVKAexjcZXUckd"
      },
      "neo_reference_id" : "2365424",
      "name" : "365424 (2010 KX7)",
      "nasa_jpl_url" : "http://ssd.jpl.nasa.gov/sbdb.cgi?sstr=2365424",
      "absolute_magnitude_h" : 21.9,
      "estimated_diameter" : {
        "kilometers" : {
          "estimated_diameter_min" : 0.1108038821,
          "estimated_diameter_max" : 0.2477650126
        },
        "meters" : {
          "estimated_diameter_min" : 110.8038821264,
          "estimated_diameter_max" : 247.7650126055
        },
        "miles" : {
          "estimated_diameter_min" : 0.068850319,
          "estimated_diameter_max" : 0.1539539936
        },
        "feet" : {
          "estimated_diameter_min" : 363.5298086356,
          "estimated_diameter_max" : 812.8773639568
        }
      },
      "is_potentially_hazardous_asteroid" : true,
      "close_approach_data" : [ {
        "close_approach_date" : "2014-05-08",
        "epoch_date_close_approach" : 1399532400000,
        "relative_velocity" : {
          "kilometers_per_second" : "10.8738706453",
          "kilometers_per_hour" : "39145.9343231088",
          "miles_per_hour" : "24323.7612464895"
        },
        "miss_distance" : {
          "astronomical" : "0.1983830708",
          "lunar" : "77.1710205078",
          "kilometers" : "29677686",
          "miles" : "18440860"
        },
        "orbiting_body" : "Earth"
      } ],
      "orbital_data" : {
        "orbit_id" : "26",
        "orbit_determination_date" : "2017-04-06 09:22:40",
        "orbit_uncertainty" : "1",
        "minimum_orbit_intersection" : ".0343382",
        "jupiter_tisserand_invariant" : "6.056",
        "epoch_osculation" : "2458000.5",
        "eccentricity" : ".1710431029397441",
        "semi_major_axis" : ".9898553873063075",
        "inclination" : "21.48659770859064",
        "ascending_node_longitude" : "46.5079357889823",
        "orbital_period" : "359.7129337539907",
        "perihelion_distance" : ".8205474503998145",
        "perihelion_argument" : "61.82281566095128",
        "aphelion_distance" : "1.159163324212801",
        "perihelion_time" : "2458111.900528979412",
        "mean_anomaly" : "248.5105686524586",
        "mean_motion" : "1.000798042603065",
        "equinox" : "J2000"
      }
    }, {
      "links" : {
        "self" : "https://api.nasa.gov/neo/rest/v1/neo/3472298?api_key=t0TVs3DtDT2H8Oy2Zy8m2eVrNsAVKAexjcZXUckd"
      },
      "neo_reference_id" : "3472298",
      "name" : "(2009 UX17)",
      "nasa_jpl_url" : "http://ssd.jpl.nasa.gov/sbdb.cgi?sstr=3472298",
      "absolute_magnitude_h" : 21.5,
      "estimated_diameter" : {
        "kilometers" : {
          "estimated_diameter_min" : 0.1332155667,
          "estimated_diameter_max" : 0.2978790628
        },
        "meters" : {
          "estimated_diameter_min" : 133.2155666981,
          "estimated_diameter_max" : 297.8790627982
        },
        "miles" : {
          "estimated_diameter_min" : 0.0827762899,
          "estimated_diameter_max" : 0.1850934111
        },
        "feet" : {
          "estimated_diameter_min" : 437.0589598459,
          "estimated_diameter_max" : 977.2935443908
        }
      },
      "is_potentially_hazardous_asteroid" : false,
      "close_approach_data" : [ {
        "close_approach_date" : "2014-05-08",
        "epoch_date_close_approach" : 1399532400000,
        "relative_velocity" : {
          "kilometers_per_second" : "5.7250281834",
          "kilometers_per_hour" : "20610.1014603588",
          "miles_per_hour" : "12806.3155435213"
        },
        "miss_distance" : {
          "astronomical" : "0.2104481125",
          "lunar" : "81.8643188477",
          "kilometers" : "31482590",
          "miles" : "19562374"
        },
        "orbiting_body" : "Earth"
      } ],
      "orbital_data" : {
        "orbit_id" : "46",
        "orbit_determination_date" : "2017-04-06 08:59:28",
        "orbit_uncertainty" : "1",
        "minimum_orbit_intersection" : ".151314",
        "jupiter_tisserand_invariant" : "5.311",
        "epoch_osculation" : "2458000.5",
        "eccentricity" : ".08335812171374875",
        "semi_major_axis" : "1.18923133252526",
        "inclination" : "10.80462033054602",
        "ascending_node_longitude" : "216.1411183130326",
        "orbital_period" : "473.6940627532714",
        "perihelion_distance" : "1.090099242362816",
        "perihelion_argument" : "278.442727068521",
        "aphelion_distance" : "1.288363422687704",
        "perihelion_time" : "2458091.101791995133",
        "mean_anomaly" : "291.1440702282212",
        "mean_motion" : ".7599841929779683",
        "equinox" : "J2000"
      }
    }, {
      "links" : {
        "self" : "https://api.nasa.gov/neo/rest/v1/neo/3667133?api_key=t0TVs3DtDT2H8Oy2Zy8m2eVrNsAVKAexjcZXUckd"
      },
      "neo_reference_id" : "3667133",
      "name" : "(2014 GC45)",
      "nasa_jpl_url" : "http://ssd.jpl.nasa.gov/sbdb.cgi?sstr=3667133",
      "absolute_magnitude_h" : 22.7,
      "estimated_diameter" : {
        "kilometers" : {
          "estimated_diameter_min" : 0.0766575574,
          "estimated_diameter_max" : 0.1714115092
        },
        "meters" : {
          "estimated_diameter_min" : 76.6575573531,
          "estimated_diameter_max" : 171.4115092306
        },
        "miles" : {
          "estimated_diameter_min" : 0.0476327831,
          "estimated_diameter_max" : 0.1065101409
        },
        "feet" : {
          "estimated_diameter_min" : 251.5011804664,
          "estimated_diameter_max" : 562.3737359442
        }
      },
      "is_potentially_hazardous_asteroid" : false,
      "close_approach_data" : [ {
        "close_approach_date" : "2014-05-08",
        "epoch_date_close_approach" : 1399532400000,
        "relative_velocity" : {
          "kilometers_per_second" : "6.2101500831",
          "kilometers_per_hour" : "22356.5402989939",
          "miles_per_hour" : "13891.4847207832"
        },
        "miss_distance" : {
          "astronomical" : "0.1853824264",
          "lunar" : "72.1137619019",
          "kilometers" : "27732816",
          "miles" : "17232374"
        },
        "orbiting_body" : "Earth"
      } ],
      "orbital_data" : {
        "orbit_id" : "23",
        "orbit_determination_date" : "2017-04-06 08:41:40",
        "orbit_uncertainty" : "6",
        "minimum_orbit_intersection" : ".183402",
        "jupiter_tisserand_invariant" : "3.839",
        "epoch_osculation" : "2458000.5",
        "eccentricity" : ".3761213196397872",
        "semi_major_axis" : "1.899640314347454",
        "inclination" : "10.70778344061567",
        "ascending_node_longitude" : "36.33060301588434",
        "orbital_period" : "956.3249652114134",
        "perihelion_distance" : "1.185145092474149",
        "perihelion_argument" : "198.0538792266097",
        "aphelion_distance" : "2.614135536220759",
        "perihelion_time" : "2457751.265829175871",
        "mean_anomaly" : "93.82197972511477",
        "mean_motion" : ".3764410771399399",
        "equinox" : "J2000"
      }
    } ]
  }
}